{"type": "FeatureCollection", "features": [ {"type": "Feature", "properties": {"norad_id": 32184, "name": "FENGYUN 1C DEB", "group": "fengyun-1c-debris", "lat": -53.489115369614986, "lon": 127.80602579433312, "alt_km": 432.0143196088193, "timestamp": "2025-12-04T07:39:36.420356+00:00", "meta": {"OBJECT_NAME": "FENGYUN 1C DEB", "OBJECT_ID": "1999-025CUE", "EPOCH": "2025-11-29T15:43:46.155648", "MEAN_MOTION": 15.41244079, "ECCENTRICITY": 0.00737243, "INCLINATION": 98.1191, "RA_OF_ASC_NODE": 111.5023, "ARG_OF_PERICENTER": 34.7178, "MEAN_ANOMALY": 325.8845, "EPHEMERIS_TYPE": 0, "CLASSIFICATION_TYPE": "U", "NORAD_CAT_ID": 32184, "ELEMENT_SET_NO": 999, "REV_AT_EPOCH": 98202, "BSTAR": 0.0015682577, "MEAN_MOTION_DOT": 0.00072323, "MEAN_MOTION_DDOT": 0}, "tle": {"line1": "1 32184U 99025CUE 25333.65539532  .00072323  00000+0  15683-2 0  9998", "line2": "2 32184  98.1191 111.5023 0073724  34.7178 325.8845 15.41244079982028"}}, "geometry": {"type": "Point", "coordinates": [127.80602579433312, -53.489115369614986]}}, {"type": "Feature", "properties": {"norad_id": 32185, "name": "FENGYUN 1C DEB", "group": "fengyun-1c-debris", "lat": -55.85744023313195, "lon": -163.30950242230668, "alt_km": 583.6686937885752, "timestamp": "2025-12-04T07:39:36.420365+00:00", "meta": {"OBJECT_NAME": "FENGYUN 1C DEB", "OBJECT_ID": "1999-025CUF", "EPOCH": "2025-12-03T12:43:36.974784", "MEAN_MOTION": 15.02137123, "ECCENTRICITY": 0.01653752, "INCLINATION": 98.9033, "RA_OF_ASC_NODE": 182.4196, "ARG_OF_PERICENTER": 45.0145, "MEAN_ANOMALY": 316.4343, "EPHEMERIS_TYPE": 0, "CLASSIFICATION_TYPE": "U", "NORAD_CAT_ID": 32185, "ELEMENT_SET_NO": 999, "REV_AT_EPOCH": 94877, "BSTAR": 0.0034005879, "MEAN_MOTION_DOT": 0.00060545, "MEAN_MOTION_DDOT": 0}, "tle": {"line1": "1 32185U 99025CUF 25337.53028906  .00060545  00000+0  34006-2 0  9991", "line2": "2 32185  98.9033 182.4196 0165375  45.0145 316.4343 15.02137123948774"}}, "geometry": {"type": "Point", "coordinates": [-163.30950242230668, -55.85744023313195]}}, {"type": "Feature", "properties": {"norad_id": 32186, "name": "FENGYUN 1C DEB", "group": "fengyun-1c-debris", "lat": 78.66064959575503, "lon": -93.63739846854952, "alt_km": 1085.0351815041067, "timestamp": "2025-12-04T07:39:36.420374+00:00", "meta": {"OBJECT_NAME": "FENGYUN 1C DEB", "OBJECT_ID": "1999-025CUG", "EPOCH": "2025-11-27T22:32:39.210144", "MEAN_MOTION": 13.76456233, "ECCENTRICITY": 0.0273811, "INCLINATION": 99.6093, "RA_OF_ASC_NODE": 22.268, "ARG_OF_PERICENTER": 239.107, "MEAN_ANOMALY": 302.2685, "EPHEMERIS_TYPE": 0, "CLASSIFICATION_TYPE": "U", "NORAD_CAT_ID": 32186, "ELEMENT_SET_NO": 999, "REV_AT_EPOCH": 62406, "BSTAR": 0.0013119, "MEAN_MOTION_DOT": 1.643e-05, "MEAN_MOTION_DDOT": 0}, "tle": {"line1": "1 32186U 99025CUG 25331.93934271  .00001643  00000+0  13119-2 0  9997", "line2": "2 32186  99.6093  22.2680 0273811 239.1070 302.2685 13.76456233624066"}}, "geometry": {"type": "Point", "coordinates": [-93.63739846854952, 78.66064959575503]}}, {"type": "Feature", "properties": {"norad_id": 32187, "name": "FENGYUN 1C DEB", "group": "fengyun-1c-debris", "lat": -26.964421902018625, "lon": 62.5294496706627, "alt_km": 1287.5767161104704, "timestamp": "2025-12-04T07:39:36.420383+00:00", "meta": {"OBJECT_NAME": "FENGYUN 1C DEB", "OBJECT_ID": "1999-025CUH", "EPOCH": "2025-11-14T01:13:51.155328", "MEAN_MOTION": 13.50459969, "ECCENTRICITY": 0.02935721, "INCLINATION": 99.509, "RA_OF_ASC_NODE": 38.2489, "ARG_OF_PERICENTER": 217.6555, "MEAN_ANOMALY": 268.1397, "EPHEMERIS_TYPE": 0, "CLASSIFICATION_TYPE": "U", "NORAD_CAT_ID": 32187, "ELEMENT_SET_NO": 999, "REV_AT_EPOCH": 65871, "BSTAR": 0.0010895496, "MEAN_MOTION_DOT": 8.7e-06, "MEAN_MOTION_DDOT": 0}, "tle": {"line1": "1 32187U 99025CUH 25318.05128652  .00000870  00000+0  10895-2 0  9993", "line2": "2 32187  99.5090  38.2489 0293572 217.6555 268.1397 13.50459969658712"}}, "geometry": {"type": "Point", "coordinates": [62.5294496706627, -26.964421902018625]}}, {"type": "Feature", "properties": {"norad_id": 32191, "name": "FENGYUN 1C DEB", "group": "fengyun-1c-debris", "lat": -16.911333557941717, "lon": 37.15832781987503, "alt_km": 857.8733084033975, "timestamp": "2025-12-04T07:39:36.420392+00:00", "meta": {"OBJECT_NAME": "FENGYUN 1C DEB", "OBJECT_ID": "1999-025CUM", "EPOCH": "2025-12-02T23:43:29.966592", "MEAN_MOTION": 14.25083181, "ECCENTRICITY": 0.00935094, "INCLINATION": 98.7086, "RA_OF_ASC_NODE": 33.1669, "ARG_OF_PERICENTER": 214.5855, "MEAN_ANOMALY": 144.9219, "EPHEMERIS_TYPE": 0, "CLASSIFICATION_TYPE": "U", "NORAD_CAT_ID": 32191, "ELEMENT_SET_NO": 999, "REV_AT_EPOCH": 64362, "BSTAR": 0.0019797477, "MEAN_MOTION_DOT": 4.816e-05, "MEAN_MOTION_DDOT": 0}, "tle": {"line1": "1 32191U 99025CUM 25336.98854128  .00004816  00000+0  19797-2 0  9998", "line2": "2 32191  98.7086  33.1669 0093509 214.5855 144.9219 14.25083181643624"}}, "geometry": {"type": "Point", "coordinates": [37.15832781987503, -16.911333557941717]}}, {"type": "Feature", "properties": {"norad_id": 32192, "name": "FENGYUN 1C DEB", "group": "fengyun-1c-debris", "lat": -27.539667995079515, "lon": -145.5731291318672, "alt_km": 1071.3937793914092, "timestamp": "2025-12-04T07:39:36.420401+00:00", "meta": {"OBJECT_NAME": "FENGYUN 1C DEB", "OBJECT_ID": "1999-025CUN", "EPOCH": "2025-12-03T09:13:07.641408", "MEAN_MOTION": 13.82502199, "ECCENTRICITY": 0.0181293, "INCLINATION": 98.6532, "RA_OF_ASC_NODE": 209.013, "ARG_OF_PERICENTER": 187.8363, "MEAN_ANOMALY": 171.9952, "EPHEMERIS_TYPE": 0, "CLASSIFICATION_TYPE": "U", "NORAD_CAT_ID": 32192, "ELEMENT_SET_NO": 999, "REV_AT_EPOCH": 92583, "BSTAR": 0.00038301979, "MEAN_MOTION_DOT": 4.32e-06, "MEAN_MOTION_DDOT": 0}, "tle": {"line1": "1 32192U 99025CUN 25337.38411622  .00000432  00000+0  38302-3 0  9996", "line2": "2 32192  98.6532 209.0130 0181293 187.8363 171.9952 13.82502199925838"}}, "geometry": {"type": "Point", "coordinates": [-145.5731291318672, -27.539667995079515]}}, {"type": "Feature", "properties": {"norad_id": 32195, "name": "FENGYUN 1C DEB", "group": "fengyun-1c-debris", "lat": 12.099239201334168, "lon": 162.85979112466478, "alt_km": 911.7317898688052, "timestamp": "2025-12-04T07:39:36.420410+00:00", "meta": {"OBJECT_NAME": "FENGYUN 1C DEB", "OBJECT_ID": "1999-025CUR", "EPOCH": "2025-12-01T17:29:04.257600", "MEAN_MOTION": 14.08429834, "ECCENTRICITY": 0.00689475, "INCLINATION": 98.7739, "RA_OF_ASC_NODE": 338.4429, "ARG_OF_PERICENTER": 331.6193, "MEAN_ANOMALY": 28.1229, "EPHEMERIS_TYPE": 0, "CLASSIFICATION_TYPE": "U", "NORAD_CAT_ID": 32195, "ELEMENT_SET_NO": 999, "REV_AT_EPOCH": 63827, "BSTAR": 0.0006643102, "MEAN_MOTION_DOT": 1.12e-05, "MEAN_MOTION_DDOT": 0}, "tle": {"line1": "1 32195U 99025CUR 25335.72852150  .00001120  00000+0  66431-3 0  9999", "line2": "2 32195  98.7739 338.4429 0068947 331.6193  28.1229 14.08429834638271"}}, "geometry": {"type": "Point", "coordinates": [162.85979112466478, 12.099239201334168]}}, {"type": "Feature", "properties": {"norad_id": 32197, "name": "FENGYUN 1C DEB", "group": "fengyun-1c-debris", "lat": -78.59382870325352, "lon": -61.86447018295312, "alt_km": 683.2833962116538, "timestamp": "2025-12-04T07:39:36.420419+00:00", "meta": {"OBJECT_NAME": "FENGYUN 1C DEB", "OBJECT_ID": "1999-025CUT", "EPOCH": "2025-12-03T00:16:34.012128", "MEAN_MOTION": 14.32622811, "ECCENTRICITY": 0.01612306, "INCLINATION": 98.901, "RA_OF_ASC_NODE": 245.8253, "ARG_OF_PERICENTER": 258.5415, "MEAN_ANOMALY": 117.5288, "EPHEMERIS_TYPE": 0, "CLASSIFICATION_TYPE": "U", "NORAD_CAT_ID": 32197, "ELEMENT_SET_NO": 999, "REV_AT_EPOCH": 94284, "BSTAR": 0.00064150126, "MEAN_MOTION_DOT": 1.961e-05, "MEAN_MOTION_DDOT": 0}, "tle": {"line1": "1 32197U 99025CUT 25337.01150477  .00001961  00000+0  64150-3 0  9997", "line2": "2 32197  98.9010 245.8253 0161230 258.5415 117.5288 14.32622811942842"}}, "geometry": {"type": "Point", "coordinates": [-61.86447018295312, -78.59382870325352]}}, {"type": "Feature", "properties": {"norad_id": 32198, "name": "FENGYUN 1C DEB", "group": "fengyun-1c-debris", "lat": -74.8393515948933, "lon": 158.62098083312816, "alt_km": 814.1789012346062, "timestamp": "2025-12-04T07:39:36.420427+00:00", "meta": {"OBJECT_NAME": "FENGYUN 1C DEB", "OBJECT_ID": "1999-025CUU", "EPOCH": "2025-11-26T15:55:14.672064", "MEAN_MOTION": 14.08693486, "ECCENTRICITY": 0.00946342, "INCLINATION": 98.344, "RA_OF_ASC_NODE": 118.7379, "ARG_OF_PERICENTER": 338.8779, "MEAN_ANOMALY": 20.8495, "EPHEMERIS_TYPE": 0, "CLASSIFICATION_TYPE": "U", "NORAD_CAT_ID": 32198, "ELEMENT_SET_NO": 999, "REV_AT_EPOCH": 56719, "BSTAR": 0.0016262032, "MEAN_MOTION_DOT": 2.879e-05, "MEAN_MOTION_DDOT": 0}, "tle": {"line1": "1 32198U 99025CUU 25330.66336426  .00002879  00000+0  16262-2 0  9991", "line2": "2 32198  98.3440 118.7379 0094634 338.8779  20.8495 14.08693486567195"}}, "geometry": {"type": "Point", "coordinates": [158.62098083312816, -74.8393515948933]}}, {"type": "Feature", "properties": {"norad_id": 32200, "name": "FENGYUN 1C DEB", "group": "fengyun-1c-debris", "lat": -12.709650084933292, "lon": 29.406520343402182, "alt_km": 820.6022949388826, "timestamp": "2025-12-04T07:39:36.420436+00:00", "meta": {"OBJECT_NAME": "FENGYUN 1C DEB", "OBJECT_ID": "1999-025CUW", "EPOCH": "2025-12-01T10:10:20.091360", "MEAN_MOTION": 14.1562895, "ECCENTRICITY": 0.00392526, "INCLINATION": 98.7925, "RA_OF_ASC_NODE": 24.5506, "ARG_OF_PERICENTER": 323.0087, "MEAN_ANOMALY": 36.8381, "EPHEMERIS_TYPE": 0, "CLASSIFICATION_TYPE": "U", "NORAD_CAT_ID": 32200, "ELEMENT_SET_NO": 999, "REV_AT_EPOCH": 94203, "BSTAR": 0.0011757529, "MEAN_MOTION_DOT": 2.276e-05, "MEAN_MOTION_DDOT": 0}, "tle": {"line1": "1 32200U 99025CUW 25335.42384365  .00002276  00000+0  11758-2 0  9995", "line2": "2 32200  98.7925  24.5506 0039252 323.0087  36.8381 14.15628950942033"}}, "geometry": {"type": "Point", "coordinates": [29.406520343402182, -12.709650084933292]}}]}